QZS-1-(MICHIBIKI-1)-----
1 37158U 10045A   21248.56895038 -.00000172  00000-0  00000-0 0  9996
2 37158  42.0325 137.3475 0745325 270.1539 279.8072  1.00302375 40230
QZS-2-(MICHIBIKI-2)-----
1 42738U 17028A   21249.34772917 -.00000114  00000-0  00000-0 0  9997
2 42738  42.2491 268.1760 0752325 270.0330  73.1449  1.00265829 15644
QZS-3-(MICHIBIKI-3)-----
1 42917U 17048A   21249.54821747 -.00000354  00000-0  00000-0 0  9992
2 42917   0.0682 223.2355 0001459 314.7414 132.2363  1.00276063 14769
QZS-4-(MICHIBIKI-4)-----
1 42965U 17062A   21248.74630853 -.00000298  00000-0  00000-0 0  9995
2 42965  40.8188   5.7909 0747237 269.2603 117.8409  1.00283559 14317
